OBJECT_NAME,OBJECT_ID,EPOCH,MEAN_MOTION,ECCENTRICITY,INCLINATION,RA_OF_ASC_NODE,ARG_OF_PERICENTER,MEAN_ANOMALY,EPHEMERIS_TYPE,CLASSIFICATION_TYPE,NORAD_CAT_ID,ELEMENT_SET_NO,REV_AT_EPOCH,BSTAR,MEAN_MOTION_DOT,MEAN_MOTION_DDOT
STARLINK-33751,2025-071V,2026-06-15T22:12:09.662976,15.31701326,.00014544,53.1613,43.3497,50.9373,309.1757,0,U,63512,999,6779,-.10203756E-2,-.31896E-3,0
STARLINK-33750,2025-071W,2026-06-15T21:58:45.301440,15.31708493,.00015834,53.1611,43.2916,92.7859,267.3324,0,U,63513,999,6779,.72584349E-3,.22232E-3,0
STARLINK-33786,2025-071X,2026-06-15T23:23:09.099168,15.30203657,.00012289,53.1602,43.6494,84.7204,275.3937,0,U,63514,999,6743,.32526498E-3,.9287E-4,0
STARLINK-33796,2025-071Y,2026-06-15T22:20:50.979840,15.30198141,.00012815,53.1599,43.3831,83.3188,276.7958,0,U,63515,999,6781,.93331725E-3,.27383E-3,0
STARLINK-33785,2025-071Z,2026-06-15T22:18:54.906624,15.31704041,.00011169,53.1597,43.3751,79.4914,280.6213,0,U,63516,999,6779,.86604365E-3,.26609E-3,0
STARLINK-33803,2025-071AA,2026-06-15T22:31:29.043840,15.30199863,.00012776,53.1593,43.4219,87.4052,272.7095,0,U,63517,999,6781,.2741543E-3,.7769E-4,0
STARLINK-33807,2025-071AB,2026-06-15T22:00:01.999584,15.42863825,.00011284,53.1593,41.4695,88.6104,115.3061,0,U,63518,999,590,-.45630624E-1,-.1830912E-1,0
STARLINK-33787,2025-071AC,2026-06-15T23:02:38.497920,15.30204889,.00011564,53.1588,45.6946,93.4017,266.7116,0,U,63519,999,6741,.58281208E-3,.16944E-3,0
STARLINK-11669 [DTC],2025-075A,2026-06-15T13:05:21.575904,15.70871403,.0002079,43.0010,283.5279,266.9779,93.0851,0,U,63548,999,6864,.11934888E-2,.155805E-2,0
STARLINK-11665 [DTC],2025-075B,2026-06-14T14:50:10.992192,15.70975915,.0002382,43.0037,289.4875,256.5113,103.5489,0,U,63549,999,6849,.13705E-2,.180306E-2,0
STARLINK-11667 [DTC],2025-075C,2026-06-15T05:04:48.672480,15.71015729,.00010388,42.9990,286.2153,337.4930,22.5892,0,U,63550,999,6858,.1566479E-2,.207165E-2,0
STARLINK-11695 [DTC],2025-075D,2026-06-15T13:06:40.214592,15.70870808,.00016136,42.9984,283.5349,232.2689,127.8033,0,U,63551,999,6864,.938838E-3,.121958E-2,0
STARLINK-11685 [DTC],2025-075E,2026-06-15T01:08:10.023072,15.70873240,.00024122,43.0014,286.6775,272.4695,87.5896,0,U,63552,999,6856,.78556273E-3,.101741E-2,0
STARLINK-11697 [DTC],2025-075F,2026-06-15T13:28:17.584032,15.70860561,.00013031,42.9991,283.6527,261.8907,98.1812,0,U,63553,999,6864,.12121196E-2,.158214E-2,0
STARLINK-11680 [DTC],2025-075G,2026-06-15T12:34:57.713376,15.70981568,.00038615,42.9992,284.2500,290.8912,69.1542,0,U,63554,999,6863,.1378061E-2,.181404E-2,0
STARLINK-11626 [DTC],2025-075J,2026-06-15T19:04:08.201568,15.70924009,.00020845,43.0014,282.8427,264.2115,95.8515,0,U,63556,999,6867,.11480236E-2,.150081E-2,0
STARLINK-11668 [DTC],2025-075K,2026-06-15T14:21:48.645216,15.71049835,.00013978,42.9988,283.9516,234.4889,125.5848,0,U,63557,999,6864,.18347789E-2,.244169E-2,0
STARLINK-11657 [DTC],2025-075L,2026-06-14T15:05:28.436640,15.70901278,.0002562,43.0015,289.5709,258.5642,101.4938,0,U,63558,999,6849,.11103E-2,.144909E-2,0
STARLINK-11606 [DTC],2025-075M,2026-06-15T01:00:32.208480,15.71060252,.00016314,43.0004,286.6315,324.1676,35.9082,0,U,63559,999,6856,.13642508E-2,.180109E-2,0
STARLINK-11592 [DTC],2025-075N,2026-06-15T18:10:36.958080,15.70915761,.00027761,43.0024,282.5421,258.8155,101.2400,0,U,63560,999,6867,.11560071E-2,.151103E-2,0
STARLINK-32953,2025-075P,2026-06-14T01:23:35.357568,15.27607960,.00005656,43.0025,86.5717,189.0448,171.0394,0,U,63561,999,6666,.6736789E-3,.18338E-3,0
STARLINK-32951,2025-075Q,2026-06-15T00:50:22.607232,15.27599184,.00040101,43.0090,80.9798,276.6325,83.4070,0,U,63562,999,6682,.79497156E-3,.21694E-3,0
STARLINK-32958,2025-075R,2026-06-15T11:34:40.631808,15.27584147,.00023086,43.0039,78.3413,262.7754,97.2835,0,U,63563,999,6688,.75044084E-3,.20449E-3,0
STARLINK-32928,2025-075S,2026-06-15T11:10:36.986304,15.27592269,.00017716,43.0035,78.2185,267.8154,92.2495,0,U,63564,999,6689,.55880538E-3,.15152E-3,0
STARLINK-32687,2025-075T,2026-06-15T16:00:00.999936,15.27552680,.00015298,43.0029,77.3922,262.6355,342.4650,0,U,63565,999,587,.13111142E-2,.35963E-3,0
STARLINK-32950,2025-075U,2026-06-15T01:38:15.426240,15.27573370,.00017408,43.0016,80.3325,280.3844,79.6811,0,U,63566,999,6682,.70147761E-3,.19087E-3,0
STARLINK-32954,2025-075V,2026-06-15T11:21:42.752736,15.27582055,.00033739,43.0073,78.2451,264.4291,95.6176,0,U,63567,999,6688,.72578287E-3,.19766E-3,0
STARLINK-32940,2025-075W,2026-06-15T11:29:07.219392,15.27592544,.00014873,43.0071,78.2843,274.1947,85.8735,0,U,63568,999,6688,.75686716E-3,.20631E-3,0
STARLINK-32959,2025-076A,2026-06-15T15:04:41.555136,15.27590040,.00039754,43.0044,132.5694,265.0392,95.0006,0,U,63569,999,6676,.58140531E-3,.15778E-3,0
STARLINK-32956,2025-076B,2026-06-15T04:16:29.895456,15.27602504,.00036072,43.0118,134.3502,282.4462,77.5986,0,U,63570,999,6669,.49361167E-3,.13356E-3,0
STARLINK-33722,2025-076C,2026-06-15T04:37:32.226240,15.27579843,.00014294,42.9941,130.9271,266.3597,93.7091,0,U,63571,999,6673,.43097046E-3,.11616E-3,0
STARLINK-33739,2025-076D,2026-06-15T14:52:26.244480,15.27587976,.00010945,42.9954,128.9786,265.0525,95.0202,0,U,63572,999,6680,.6109971E-3,.16593E-3,0
STARLINK-33683,2025-076E,2026-06-15T14:50:34.680480,15.27588229,.00030288,43.0069,128.9677,265.1000,94.9506,0,U,63573,999,6680,.77353842E-3,.21091E-3,0
STARLINK-33732,2025-076G,2026-06-15T05:07:08.030496,15.27596503,.00008277,43.0017,131.0898,271.5004,88.5752,0,U,63575,999,6674,.46072491E-3,.12444E-3,0
STARLINK-33800,2025-076H,2026-06-15T04:30:08.222688,15.27611541,.00018095,43.0106,130.8928,115.5978,244.5061,0,U,63576,999,6674,.63592856E-3,.17295E-3,0
STARLINK-33632,2025-076J,2026-06-14T15:14:31.216128,15.27596278,.00034498,43.0056,134.4865,265.4516,94.5941,0,U,63577,999,6665,.8313952E-3,.227E-3,0
STARLINK-33719,2025-076K,2026-06-15T04:43:05.248992,15.27584192,.00005843,43.0049,130.9583,234.7002,125.3795,0,U,63578,999,6674,.52417101E-3,.14191E-3,0
STARLINK-33755,2025-076L,2026-06-15T04:44:55.008096,15.27583678,.00005508,43.0031,130.8825,237.6433,122.4365,0,U,63579,999,6674,.49925429E-3,.13503E-3,0
STARLINK-33752,2025-076M,2026-06-15T05:03:26.934624,15.27571636,.00011687,42.9975,131.0636,264.4727,95.5992,0,U,63580,999,6674,.52615272E-3,.14241E-3,0
STARLINK-33714,2025-076N,2026-06-15T04:31:57.216288,15.27621302,.00005871,42.9980,130.8971,231.1058,128.9742,0,U,63581,999,6674,.52843959E-3,.14326E-3,0
STARLINK-33814,2025-076P,2026-06-15T16:00:00.999936,15.27583322,.00010424,43.0008,128.1098,278.8445,227.2374,0,U,63582,999,557,-.38533914E-3,-.10851E-3,0
STARLINK-33817,2025-076Q,2026-06-15T04:13:28.776864,15.27590446,.00012723,43.0046,130.7996,271.1524,88.9182,0,U,63583,999,6673,.51419552E-3,.13919E-3,0
STARLINK-33820,2025-076R,2026-06-15T04:02:22.543872,15.27590956,.00022051,43.0036,130.7371,267.7003,92.3596,0,U,63584,999,6674,.77076906E-3,.21016E-3,0
STARLINK-33813,2025-076S,2026-06-15T04:04:14.757600,15.27605993,.00048895,43.0051,130.7485,276.1038,83.9257,0,U,63585,999,6674,.59141431E-3,.16064E-3,0
STARLINK-33834,2025-076T,2026-06-15T04:54:11.274624,15.27592207,.00026298,43.0007,131.0091,285.1317,74.9243,0,U,63586,999,6674,.58106473E-3,.15768E-3,0
STARLINK-33830,2025-076U,2026-06-15T04:50:30.045696,15.27579054,.00008084,43.0013,130.9898,269.0214,91.0545,0,U,63587,999,6674,.5403532E-3,.14636E-3,0
STARLINK-33651,2025-076V,2026-06-15T04:52:20.225568,15.27586260,.00007381,43.0002,131.0007,274.0921,85.9847,0,U,63588,999,6674,.42339513E-3,.11409E-3,0
STARLINK-33788,2025-076W,2026-06-14T15:08:58.833600,15.27590270,.00017871,42.9934,134.4568,266.4160,93.6487,0,U,63589,999,6665,.74483799E-3,.20297E-3,0
STARLINK-33805,2025-076X,2026-06-15T14:56:07.888128,15.27592082,.00018258,43.0002,128.9792,266.3553,93.7090,0,U,63590,999,6680,.88041496E-3,.24053E-3,0
STARLINK-33702,2025-076Y,2026-06-15T04:24:34.873344,15.27608081,.00006604,43.0013,130.8515,132.7819,227.3088,0,U,63591,999,6674,.6191008E-3,.16828E-3,0
STARLINK-33666,2025-076Z,2026-06-14T15:01:34.047264,15.27603364,.0003445,43.0059,134.4126,266.6051,93.4406,0,U,63592,999,6665,.52251E-3,.14155E-3,0
STARLINK-33723,2025-076AA,2026-06-15T04:33:50.140224,15.27582509,.00007279,43.0037,130.9006,250.3835,109.6938,0,U,63593,999,6674,.46801723E-3,.1264E-3,0
STARLINK-33791,2025-076AB,2026-06-14T15:05:18.042720,15.27564440,.00023984,43.0033,134.4312,270.8010,89.2567,0,U,63594,999,6665,.75792399E-3,.20643E-3,0
STARLINK-33831,2025-076AC,2026-06-15T04:39:22.262688,15.27584522,.00009891,43.0020,130.8695,268.6116,91.4622,0,U,63595,999,6674,.45760226E-3,.12353E-3,0
STARLINK-33879,2025-083A,2026-06-15T07:36:15.311232,15.27586231,.00007063,43.0006,174.2110,267.0826,92.9945,0,U,63634,999,6499,.49117515E-3,.13281E-3,0
STARLINK-33854,2025-083B,2026-06-14T18:01:56.038656,15.27584833,.00022883,43.0017,176.8538,276.7626,83.2965,0,U,63635,999,6491,.59783052E-3,.16228E-3,0
STARLINK-33864,2025-083C,2026-06-15T17:06:44.513280,15.27592335,.00024368,42.9949,172.0249,272.4003,87.6570,0,U,63636,999,6508,.55306265E-3,.14994E-3,0
STARLINK-33832,2025-083D,2026-06-15T17:23:10.888512,15.27584498,.00023543,43.0027,171.2534,264.4865,95.5718,0,U,63637,999,6506,.63384539E-3,.17223E-3,0
STARLINK-33856,2025-083E,2026-06-15T17:37:58.870560,15.27585373,.00027132,43.0036,171.3245,265.9910,94.0632,0,U,63638,999,6506,.64673078E-3,.17581E-3,0
STARLINK-33876,2025-083F,2026-06-13T07:56:23.640288,15.27595016,.00039695,42.9986,185.0966,278.8312,81.2090,0,U,63639,999,6469,.53091974E-3,.14385E-3,0
STARLINK-33859,2025-083G,2026-06-15T17:04:54.170112,15.27580207,.00003947,43.0072,172.0174,267.6858,92.3948,0,U,63640,999,6505,.44950094E-3,.12128E-3,0
STARLINK-33826,2025-083H,2026-06-15T17:41:41.310816,15.27585766,.00018655,43.0030,171.3506,267.5946,92.4692,0,U,63641,999,6506,.64255718E-3,.17465E-3,0
STARLINK-33836,2025-083J,2026-06-15T16:51:56.799936,15.27590272,.00005661,43.0065,171.9510,186.2304,173.8541,0,U,63642,999,6505,.61792876E-3,.16786E-3,0
